ONEWEB-0624             
1 55165U 23004AB  23226.91668981 -.00992910  00000+0 -89763+0 0  9997
2 55165  87.3525 198.0395 0004401  33.3499 237.5329 13.87044536 31836
ONEWEB-0625             
1 55166U 23004AC  23226.44438818  .00000036  00000+0  47239-4 0  9994
2 55166  87.9717 212.1074 0002387 101.7762 258.3645 13.30722964 30873
ONEWEB-0626             
1 55167U 23004AD  23226.68566786  .00000021  00000+0  17059-4 0  9998
2 55167  87.9687 212.0063 0002218 107.0530 253.0852 13.30954966 30918
ONEWEB-0627             
1 55168U 23004AE  23226.03296166  .00000082  00000+0  14493-3 0  9995
2 55168  87.9714 212.1957 0002931  74.9696 285.1767 13.30817584 30825
ONEWEB-0628             
1 55169U 23004AF  23227.25001157 -.00959608  00000+0 -90997+0 0  9993
2 55169  87.3785 197.9650 0005401 226.8862 177.9243 13.84131239 31885
ONEWEB-0629             
1 55170U 23004AG  23226.44799936  .00000066  00000+0  11072-3 0  9998
2 55170  87.9695 212.0519 0001761 120.2116 239.9198 13.30969744 30888
ONEWEB-0631             
1 55171U 23004AH  23226.67535282  .00000129  00000+0  19248-4 0  9990
2 55171  86.6313 195.3347 0001215 120.6510 239.4824 14.66083979 31979
ONEWEB-0709             
1 55172U 23004AJ  23227.25001157  .00000013  00000+0  00000+0 0  9998
2 55172  87.8813 227.0609 0001550  82.0359 257.5185 13.12525556 29976
